ONEWEB-0275             
1 48993U 21060AC  26155.23395026  .00000076  00000+0  16538-3 0  9999
2 48993  87.9107 231.3474 0001995  98.8843 261.2514 13.16594296237857
ONEWEB-0276             
1 48994U 21060AD  26155.72317568  .00000215  00000+0  52930-3 0  9990
2 48994  87.9104 231.2497 0002021  95.2514 264.8848 13.16593379237935
ONEWEB-0277             
1 48995U 21060AE  26155.73584638  .00000198  00000+0  48423-3 0  9998
2 48995  87.9099 231.2577 0001753  96.7131 263.4199 13.16592195237928
ONEWEB-0278             
1 48996U 21060AF  26155.72633858  .00000082  00000+0  18051-3 0  9993
2 48996  87.9108 231.2481 0002263 107.4326 252.7053 13.16595438238055
ONEWEB-0279             
1 48997U 21060AG  26155.73426420  .00000100  00000+0  22750-3 0  9992
2 48997  87.9099 231.2455 0001792  93.2474 266.8862 13.16593987237980
ONEWEB-0280             
1 48998U 21060AH  26155.67329193  .00000055  00000+0  11055-3 0  9990
2 48998  87.9102 231.2610 0001968 111.7179 248.4161 13.16593124237916
ONEWEB-0281             
1 48999U 21060AJ  26155.67885230  .00000052  00000+0  10142-3 0  9993
2 48999  87.9105 231.2557 0002148 103.8972 256.2398 13.16594275237988
ONEWEB-0282             
1 49000U 21060AK  26155.70892031 -.00000033  00000+0 -12036-3 0  9993
2 49000  87.9100 231.2573 0001861 100.2224 259.9117 13.16596465237967
ONEWEB-0283             
1 49001U 21060AL  26155.24185918 -.00000030  00000+0 -11262-3 0  9999
2 49001  87.9103 231.3502 0001911  98.8980 261.2367 13.16593938237911
ONEWEB-0284             
1 49002U 21060AM  26155.23553297  .00000024  00000+0  30012-4 0  9994
2 49002  87.9105 231.3443 0002109 108.9591 251.1768 13.16593974237899
ONEWEB-0285             
1 49075U 21075A   26155.09994843 -.00000076  00000+0 -24714-3 0  9990
2 49075  87.8949 353.2649 0001728  88.4537 271.6790 13.12441735233491
ONEWEB-0286             
1 49076U 21075B   26155.08202484  .00000393  00000+0  10582-2 0  9990
2 49076  87.8940 353.2865 0001984  87.1205 273.0151 13.12442294232841
ONEWEB-0287             
1 49077U 21075C   26155.10562763  .00000055  00000+0  10948-3 0  9995
2 49077  87.9144   8.4685 0002269  91.2477 268.8915 13.17647992231905
ONEWEB-0288             
1 49078U 21075D   26155.05844050  .00000075  00000+0  17332-3 0  9998
2 49078  87.8949 353.2667 0001962  99.4174 260.7176 13.12443949233466
ONEWEB-0289             
1 49079U 21075E   26155.67585897 -.00000035  00000+0 -12459-3 0  9991
2 49079  87.9146   8.3699 0001683  97.1754 262.9569 13.17648337232551
ONEWEB-0290             
1 49080U 21075F   26155.64899571 -.00000009  00000+0 -56477-4 0  9997
2 49080  87.9150   8.3485 0001476 100.2361 259.8937 13.17650191231960
ONEWEB-0291             
1 49081U 21075G   26155.10225340  .00000023  00000+0  25729-4 0  9996
2 49081  87.9146   8.4652 0002050  98.7172 261.4191 13.17647710231888
ONEWEB-0293             
1 49082U 21075H   26155.12755609  .00000026  00000+0  32840-4 0  9990
2 49082  87.9145   8.4633 0001708  88.0565 272.0762 13.17651075231919
ONEWEB-0294             
1 49083U 21075J   26155.06522560  .00000188  00000+0  48701-3 0  9993
2 49083  87.8952 353.2686 0001654 100.5782 259.5533 13.12444101232850
ONEWEB-0295             
1 49084U 21075K   26155.65826727 -.00000274  00000+0 -73763-3 0  9995
2 49084  87.9136   8.3630 0002064  99.1955 260.9410 13.17649885231944
ONEWEB-0296             
1 49085U 21075L   26155.04488376 -.00000514  00000+0 -14634-2 0  9991
2 49085  87.8952 353.2806 0002139  87.7525 272.3848 13.12442268232850
ONEWEB-0297             
1 49086U 21075M   26155.07538888  .00000459  00000+0  12417-2 0  9992
2 49086  87.8939 353.2862 0001900  91.7312 268.4034 13.12443239233462
ONEWEB-0298             
1 49087U 21075N   26155.05516284  .00000254  00000+0  61996-3 0  9997
2 49087  87.9142   8.4796 0001956  90.6254 269.5102 13.17650371231894
ONEWEB-0299             
1 49088U 21075P   26155.66418925  .00000047  00000+0  87000-4 0  9993
2 49088  87.9153   8.3379 0001975  87.7993 272.3365 13.17650561231952
ONEWEB-0300             
1 49089U 21075Q   26155.06776474  .00000283  00000+0  75202-3 0  9996
2 49089  87.8954 353.2656 0002036  83.1466 276.9894 13.12444430233483
ONEWEB-0301             
1 49090U 21075R   26155.05166506 -.00000179  00000+0 -53186-3 0  9999
2 49090  87.8949 353.2676 0001846  78.5900 281.5436 13.12444802232846
ONEWEB-0302             
1 49091U 21075S   26155.11434439 -.00000384  00000+0 -11031-2 0  9990
2 49091  87.8952 353.2658 0001619 100.1426 259.9885 13.12444021232833
ONEWEB-0304             
1 49092U 21075T   26155.10731491  .00000064  00000+0  13124-3 0  9997
2 49092  87.9140   8.4722 0001969  87.2221 272.9136 13.17647834231858
ONEWEB-0305             
1 49093U 21075U   26155.10056657  .00000029  00000+0  41879-4 0  9992
2 49093  87.9148   8.4571 0002201  90.1746 269.9637 13.17647963231882
ONEWEB-0308             
1 49094U 21075V   26155.10756853 -.00000329  00000+0 -95039-3 0  9999
2 49094  87.8951 353.2600 0001770  87.7027 272.4304 13.12441817232844
